OBJECT_NAME,OBJECT_ID,EPOCH,MEAN_MOTION,ECCENTRICITY,INCLINATION,RA_OF_ASC_NODE,ARG_OF_PERICENTER,MEAN_ANOMALY,EPHEMERIS_TYPE,CLASSIFICATION_TYPE,NORAD_CAT_ID,ELEMENT_SET_NO,REV_AT_EPOCH,BSTAR,MEAN_MOTION_DOT,MEAN_MOTION_DDOT
H-2A R/B,2006-002B,2026-06-04T00:03:58.149504,15.17891973,.00496693,98.2552,309.6413,308.2411,51.4355,0,U,28932,999,10752,.30250412E-3,.6247E-4,0
RESURS-DK 1,2006-021A,2026-06-04T00:18:23.517216,15.13154696,.00060306,69.9332,13.6552,303.6136,56.4455,0,U,29228,999,10058,.13938843E-3,.237E-4,0
CZ-4B R/B,2006-046C,2026-06-04T03:11:23.895744,15.17683201,.00316905,97.5456,199.7807,330.1583,29.7842,0,U,29507,999,7315,.25994175E-3,.5234E-4,0
CZ-2C R/B,2007-010B,2026-06-03T07:44:20.381568,14.20272773,.0059778,98.4088,263.3526,46.1443,314.4652,0,U,31114,999,99187,.73245508E-4,.119E-5,0
COSMO-SKYMED 1,2007-023A,2026-06-04T07:14:54.907296,14.97043611,.00015546,97.8863,347.0505,81.4027,278.7371,0,U,31598,999,2786,.23034006E-3,.2593E-4,0
COSMOS 2428,2007-029A,2026-06-04T01:06:52.855776,14.12931324,.0007352,70.9381,22.0691,160.1979,199.9429,0,U,31792,999,97629,-.71428749E-4,-.181E-5,0
SL-16 R/B,2007-029B,2026-06-03T14:31:18.430752,14.14847422,.00023145,70.9758,351.7816,257.9016,159.5807,0,U,31793,999,97752,.10774096E-3,.16E-5,0
KORONAS-FOTON,2009-003A,2026-06-04T07:46:53.884128,15.45447603,.00102465,82.4287,185.6749,191.4188,168.6829,0,U,33504,999,95911,.24854514E-3,.11957E-3,0
CZ-2C R/B,2011-030B,2026-06-04T05:08:43.192320,14.81438717,.00537963,97.8650,110.8357,69.2961,26.3935,0,U,37731,999,80290,.20182364E-3,.1565E-4,0
H-2A R/B,2012-025E,2026-06-03T23:27:54.868896,14.95639537,.00447139,98.4819,129.0360,31.6803,328.7092,0,U,38341,999,76111,.26873077E-3,.2976E-4,0
SHIJIAN-16 (SJ-16),2013-057A,2026-06-04T05:39:51.916320,14.92580306,.00169524,74.9732,21.2139,260.5129,99.4143,0,U,39358,999,68441,.12572393E-3,.1267E-4,0
SL-4 R/B,2014-021B,2026-06-03T15:31:29.208576,15.41642817,.00917058,51.6063,277.0919,56.7885,304.1851,0,U,39679,999,66952,.25569107E-3,.12294E-3,0
ALOS-2,2014-029A,2026-06-04T06:56:02.012352,14.79484461,.00015984,97.9216,252.6372,89.6934,270.4461,0,U,39766,999,64967,.19112008E-3,.1377E-4,0
YAOGAN-29,2015-069A,2026-06-04T06:59:33.890208,14.83072417,.00029411,98.0026,183.9033,75.0818,285.0721,0,U,41038,999,56871,.25722285E-4,.155E-5,0
ASTRO-H (HITOMI),2016-012A,2026-06-02T07:09:10.946304,15.10444105,.00094747,30.9972,170.3433,103.6260,256.5434,0,U,41337,999,56503,.13655145E-3,.2399E-4,0
HXMT (HUIYAN),2017-034A,2026-06-04T07:22:14.805120,15.18374134,.00302683,43.0141,254.7572,62.0221,298.3685,0,U,42758,999,49570,.26969831E-3,.5469E-4,0
SAOCOM 1A,2018-076A,2026-06-04T05:47:49.171776,14.82164237,.00015079,97.8879,342.1783,77.6456,282.4926,0,U,43641,999,41418,.33840099E-4,.217E-5,0
H-2A R/B,2018-084L,2026-06-04T02:37:45.876864,15.44631880,.00245185,98.8590,31.1465,84.0177,276.3860,0,U,43682,999,41910,.45323106E-3,.21256E-3,0
SAOCOM 1B,2020-059A,2026-06-04T06:32:50.261280,14.82159764,.00014645,97.8882,341.3032,81.7310,278.4069,0,U,46265,999,31157,.64136181E-4,.458E-5,0
CSS (TIANHE),2021-035A,2026-06-04T02:43:28.756992,15.60233359,.0009764,41.4695,41.5326,338.4220,21.6207,0,U,48274,999,29112,.30784752E-3,.25633E-3,0
COSMOS 2550,2021-056A,2026-06-03T06:21:27.029088,15.33822322,.00082078,67.1411,142.0174,269.6582,90.3631,0,U,48865,999,27658,.18579141E-3,.5924E-4,0
CZ-2C R/B,2022-058K,2026-06-02T17:08:57.081984,15.60823058,.00334067,50.1851,238.7695,206.7998,153.1250,0,U,52794,999,22338,.46803304E-3,.40633E-3,0
CZ-2C R/B,2022-132E,2026-06-04T02:13:25.108608,15.69970737,.00171478,97.2904,161.5470,124.5379,235.7505,0,U,54039,999,20389,.46321851E-3,.56126E-3,0
GSLV R/B,2022-138AN,2026-06-04T00:25:56.720640,14.97194298,.00206476,87.3794,137.4067,190.2739,169.8074,0,U,54149,999,19684,.25540066E-3,.2993E-4,0
XRISM,2023-137A,2026-06-02T06:36:16.681248,15.12327778,.00076942,31.0020,96.1840,175.1081,184.9634,0,U,57800,999,15060,.31044403E-3,.5615E-4,0
ACS3,2024-077B,2026-06-03T15:18:19.296576,13.93351359,.0041316,97.1690,76.4520,63.8137,296.7269,0,U,59588,999,10615,.31291E-1,.41379E-3,0
SZ-21 MODULE,2025-246C,2026-06-01T22:35:51.528768,15.75039202,.00071014,41.4749,42.1841,261.1371,98.8669,0,U,66515,999,3133,.30884922E-3,.47427E-3,0
